GORIZONT 1 [-]          
1 11158U 78118A   22240.34640416 -.00000069  00000+0  00000+0 0  9993
2 11158  11.0847 202.5938 3465171 285.1161  39.4837  1.00306035108998
GORIZONT 2 [-]          
1 11440U 79062A   22239.89460311  .00000041  00000+0  00000+0 0  9997
2 11440   9.1230 301.0102 0003114 243.7448 173.3717  1.00278417124090
GORIZONT 3 [-]          
1 11648U 79105A   22239.75188573  .00000050  00000+0  00000+0 0  9997
2 11648   9.2831 302.4477 0014295 212.4187 149.1236  1.00336557108520
GORIZONT 4 [-]          
1 11841U 80049A   22239.23221324 -.00000011  00000+0  00000+0 0  9994
2 11841  10.4348 308.2308 0001150 191.8125 187.8344  0.98628024219810
GORIZONT 5 [-]          
1 13092U 82020A   22240.10300258 -.00000182  00000+0  00000+0 0  9996
2 13092  11.4249 313.5091 0034650 211.8263 166.0135  0.98532974107895
GORIZONT 6 [-]          
1 13624U 82103A   22240.44161414  .00000089  00000+0  00000+0 0  9990
2 13624  10.3453 313.5417 0003138 182.3840 188.0881  1.00280645107018
GORIZONT 7 [-]          
1 14160U 83066A   22240.23726347 -.00000027  00000+0  00000+0 0  9997
2 14160  12.0059 322.8777 0008374 313.1926  57.5121  0.98346941141139
GORIZONT 8 [-]          
1 14532U 83118A   22239.68452022 -.00000217  00000+0  00000+0 0  9992
2 14532  12.1802 324.7329 0030924 150.0394 266.7659  0.98272003106853
GORIZONT 9 [-]          
1 14940U 84041A   22239.80039549 -.00000188  00000+0  00000+0 0  9997
2 14940  11.3722 322.7719 0005014 202.9588 184.2062  1.00228731108018
GORIZONT 10 [-]         
1 15144U 84078A   22240.46565329  .00000121  00000+0  00000+0 0  9994
2 15144  11.4654 323.7926 0001467 146.8988 239.9822  1.00208571140680
GORIZONT 11 [-]         
1 15484U 85007A   22239.85933422 -.00000222  00000+0  00000+0 0  9991
2 15484  11.6475 325.7733 0005129 152.7977 252.4594  1.00392574138704
GORIZONT 12 [-]         
1 16769U 86044A   22239.89790896 -.00000017  00000+0  00000+0 0  9992
2 16769  12.2636 331.1380 0002146 186.4883 209.6083  1.00198508133345
GORIZONT 13 [-]         
1 17083U 86090A   22240.17180365 -.00000117  00000+0  00000+0 0  9991
2 17083  14.1374 338.2970 0011919 342.1301  20.9189  0.96726391105231
GORIZONT 14 [-]         
1 17969U 87040A   22239.88799242 -.00000085  00000+0  00000+0 0  9990
2 17969  13.0863 329.7117 0032727 173.2281 189.2732  0.97658754106291
GORIZONT 15 [-]         
1 19017U 88028A   22239.62720219 -.00000184  00000+0  00000+0 0  9993
2 19017  14.4251 341.1319 0038153 155.5462 236.9727  0.97830451105916
GORIZONT 16 [-]         
1 19397U 88071A   22239.24493976 -.00000217  00000+0  00000+0 0  9994
2 19397  13.2767 339.8208 0014407  68.9649 296.7348  0.99969868124345
GORIZONT 17 [-]         
1 19765U 89004A   22239.71993647 -.00000296  00000+0  00000+0 0  9999
2 19765  13.8212 343.1590 0024651 132.9051 267.1207  0.99069296121808
GORIZONT 18 [-]         
1 20107U 89052A   22239.63045389 -.00000179  00000+0  00000+0 0  9996
2 20107  13.8641 344.4203 0032646 318.4646  72.7568  0.99405469120608
GORIZONT 19 [-]         
1 20263U 89081A   22239.90668934  .00000069  00000+0  00000+0 0  9995
2 20263  13.5941 343.6088 0004259 191.5608 180.1626  1.00339361120564
GORIZONT 20 [-]         
1 20659U 90054A   22239.87182400 -.00000295  00000+0  00000+0 0  9993
2 20659  14.0291 346.4358 0007400 162.4493 238.1231  1.00272516117759
GORIZONT 21 [-]         
1 20923U 90094A   22239.30424073 -.00000211  00000+0  00000+0 0  9992
2 20923  14.0425 347.2110 0005347 190.1532 177.7975  1.00385055116516
GORIZONT 22 [-]         
1 20953U 90102A   22240.48899083 -.00000285  00000+0  00000+0 0  9994
2 20953  14.0000 347.5684 0002595  42.9421 263.0050  1.00278896116472
GORIZONT 23 [-]         
1 21533U 91046A   22240.10500818 -.00000244  00000+0  00000+0 0  9996
2 21533  14.7592 351.7155 0001971 317.2628  32.5374  0.98910521106992
GORIZONT 24 [-]         
1 21759U 91074A   22239.88799520 -.00000023  00000+0  00000+0 0  9995
2 21759  14.9127 353.6180 0017566 220.6512 129.0925  0.98442560111367
GORIZONT 25 [-]         
1 21922U 92017A   22238.03386868  .00000016  00000+0  00000+0 0  9999
2 21922  14.4566 352.9670 0029837  83.7977 285.9709  0.99855108111059
GORIZONT 26 [-]         
1 22041U 92043A   22240.49276123  .00000064  00000+0  00000+0 0  9999
2 22041  14.6242 354.9466 0030317 231.7124 155.6312  0.99241745109713
GORIZONT 27 [-]         
1 22245U 92082A   22239.90206124 -.00000101  00000+0  00000+0 0  9999
2 22245  14.5414 354.5492 0011295  17.3766   6.5970  1.00138216113235
GORIZONT 28 [-]         
1 22880U 93069A   22239.53422696  .00000088  00000+0  00000+0 0  9996
2 22880  14.6799 358.4104 0035909 131.8839 261.0378  0.99650727105280
GORIZONT 29 [-]         
1 22907U 93072A   22239.55882566 -.00000042  00000+0  00000+0 0  9999
2 22907  14.5925 357.8746 0008610 353.5165 186.0297  1.00160664105251
GORIZONT 30 [-]         
1 23108U 94030A   22239.73729741 -.00000260  00000+0  00000+0 0  9995
2 23108  14.6045 358.7799 0003100 143.8570 243.0621  1.00282980103536
GORIZONT 31 [-]         
1 23775U 96005A   22240.18452080  .00000009  00000+0  00000+0 0  9999
2 23775  14.5116   4.9829 0018606 197.5613  84.0961  0.99883733 97171
GORIZONT 32 [-]         
1 23880U 96034A   22239.52372182  .00000101  00000+0  00000+0 0  9991
2 23880  14.4600   5.5065 0007957   1.7372  11.5786  1.00164916 96110
GORIZONT 33 [-]         
1 26372U 00029A   22239.74615351 -.00000240  00000+0  00000+0 0  9996
2 26372  13.1668  16.6769 0004833 100.0651  95.2984  1.00316804 81495
